NORAD_CAT_ID,OBJECT_NAME,OBJECT_TYPE,EPOCH,MEAN_MOTION,ECCENTRICITY,INCLINATION,RA_OF_ASC_NODE,ARG_OF_PERICENTER,MEAN_ANOMALY,BSTAR,MEAN_MOTION_DOT,MEAN_MOTION_DDOT,TLE_LINE0,TLE_LINE1,TLE_LINE2,SEMIMAJOR_AXIS,PERIOD,APOGEE,PERIGEE,DECAYED
51140.0,STARLINK-3175,PAYLOAD,2022-10-14 06:07:27,15.08832875,0.0001599,53.217,116.6267,45.9896,314.1228,0.00019178,2.765e-05,0.0,0 STARLINK-3175,1 51140U 22005AN  22287.25517917  .00002765  00000-0  19178-3 0  9997,2 51140  53.2170 116.6267 0001599  45.9896 314.1228 15.08832875 42289,6917.901999999999,95.438,540.873,538.661,0.0
51140.0,STARLINK-3175,PAYLOAD,2022-10-14 18:50:32,15.08838909,0.0001525,53.2172,114.2471,41.1077,319.003,0.00020595,2.991e-05,0.0,0 STARLINK-3175,1 51140U 22005AN  22287.78509735  .00002991  00000-0  20595-3 0  9990,2 51140  53.2172 114.2471 0001525  41.1077 319.0030 15.08838909 41255,6917.884,95.438,540.804,538.694,0.0
51140.0,STARLINK-3175,PAYLOAD,2022-10-14 22:01:18,15.08844162,0.0001693,53.2166,113.6527,44.2869,315.8259,0.00016366,2.318e-05,0.0,0 STARLINK-3175,1 51140U 22005AN  22287.91757482  .00002318  00000-0  16366-3 0  9993,2 51140  53.2166 113.6527 0001693  44.2869 315.8259 15.08844162 42382,6917.868,95.437,540.904,538.561,0.0
51140.0,STARLINK-3175,PAYLOAD,2022-10-15 05:58:14,15.08842829,0.0001716,53.2163,112.1659,44.4421,315.6709,0.00010159,1.329e-05,0.0,0 STARLINK-3175,1 51140U 22005AN  22288.24877536  .00001329  00000-0  10159-3 0  9998,2 51140  53.2163 112.1659 0001716  44.4421 315.6709 15.08842829 41320,6917.871999999999,95.437,540.924,538.55,0.0
51140.0,STARLINK-3175,PAYLOAD,2022-10-15 18:41:18,15.08855091,0.0001934,53.2165,109.7871,46.3857,313.7295,-1.0047000000000001e-07,-2.9e-06,0.0,0 STARLINK-3175,1 51140U 22005AN  22288.77868747 -.00000290  00000-0 -10047-6 0  9997,2 51140  53.2165 109.7871 0001934  46.3857 313.7295 15.08855091 41409,6917.834,95.437,541.0369999999998,538.361,0.0
51140.0,STARLINK-3175,PAYLOAD,2022-10-15 23:27:28,15.088497,0.0001844999999999,53.2162,108.8943,47.1888,312.9259,0.00014436,2.011e-05,0.0,0 STARLINK-3175,1 51140U 22005AN  22288.97741033  .00002011  00000-0  14436-3 0  9991,2 51140  53.2162 108.8943 0001845  47.1888 312.9259 15.08849700 42547,6917.851,95.437,540.992,538.439,0.0
51140.0,STARLINK-3175,PAYLOAD,2022-10-16 12:10:33,15.08841503,0.0001894,53.2159,106.5143,53.7789,306.3378,4.0333e-05,3.54e-06,0.0,0 STARLINK-3175,1 51140U 22005AN  22289.50733456  .00000354  00000-0  40333-4 0  9995,2 51140  53.2159 106.5143 0001894  53.7789 306.3378 15.08841503 42628,6917.876,95.437,541.0509999999998,538.431,0.0
51140.0,STARLINK-3175,PAYLOAD,2022-10-16 18:32:06,15.08843684,0.0001914,53.2165,105.3266,47.4217,312.6937,9.8965e-05,1.287e-05,0.0,0 STARLINK-3175,1 51140U 22005AN  22289.77229297  .00001287  00000-0  98965-4 0  9997,2 51140  53.2165 105.3266 0001914  47.4217 312.6937 15.08843684 41551,6917.869000000002,95.437,541.058,538.41,0.0
51140.0,STARLINK-3175,PAYLOAD,2022-10-17 12:01:21,15.08835328,0.0002014,53.217,102.0565,42.8776,317.2373,1.8882e-05,1.2e-07,0.0,0 STARLINK-3175,1 51140U 22005AN  22290.50093868  .00000012  00000-0  18882-4 0  9998,2 51140  53.2170 102.0565 0002014  42.8776 317.2373 15.08835328 42770,6917.895,95.438,541.153,538.366,0.0
51140.0,STARLINK-3175,PAYLOAD,2022-10-17 18:22:53,15.08842576,0.0001923,53.2171,100.8665,49.9591,310.1569,2.403800000000001e-05,9.4e-07,0.0,0 STARLINK-3175,1 51140U 22005AN  22290.76589702  .00000094  00000-0  24038-4 0  9993,2 51140  53.2171 100.8665 0001923  49.9591 310.1569 15.08842576 41703,6917.873000000001,95.437,541.068,538.4069999999998,0.0
51140.0,STARLINK-3175,PAYLOAD,2022-10-18 03:55:12,15.08844506,0.0001933,53.2164,99.0819,49.8047,310.3114,9.0135e-05,1.147e-05,0.0,0 STARLINK-3175,1 51140U 22005AN  22291.16333416  .00001147  00000-0  90135-4 0  9998,2 51140  53.2164  99.0819 0001933  49.8047 310.3114 15.08844506 42873,6917.8669999999975,95.437,541.069,538.394,0.0
51140.0,STARLINK-3175,PAYLOAD,2022-10-18 11:52:08,15.0883562,0.0001939,53.2166,97.5953,50.4188,309.6975,4.2991e-05,3.96e-06,0.0,0 STARLINK-3175,1 51140U 22005AN  22291.49453943  .00000396  00000-0  42991-4 0  9994,2 51140  53.2166  97.5953 0001939  50.4188 309.6975 15.08835620 42926,6917.894,95.438,541.1,538.4169999999998,0.0
51140.0,STARLINK-3175,PAYLOAD,2022-10-18 18:13:40,15.08834541,0.0001937,53.2167,96.4056,51.1358,308.9807,-1.6078e-05,-5.44e-06,0.0,0 STARLINK-3175,1 51140U 22005AN  22291.75950068 -.00000544  00000-0 -16078-4 0  9997,2 51140  53.2167  96.4056 0001937  51.1358 308.9807 15.08834541 41852,6917.897,95.438,541.102,538.422,0.0
51140.0,STARLINK-3175,PAYLOAD,2022-10-19 03:46:00,15.088137,0.0002521,53.2172,94.6194,46.6054,313.5147,-0.00029152,-4.922e-05,0.0,0 STARLINK-3175,1 51140U 22005AN  22292.15695487 -.00004922  00000-0 -29152-3 0  9993,2 51140  53.2172  94.6194 0002521  46.6054 313.5147 15.08813700 43027,6917.9609999999975,95.439,541.57,538.082,0.0
51140.0,STARLINK-3175,PAYLOAD,2022-10-19 11:42:57,15.08817084,0.0001803,53.2175,93.1343,43.5265,316.5869,-2.3726e-05,-6.65e-06,0.0,0 STARLINK-3175,1 51140U 22005AN  22292.48816237 -.00000665  00000-0 -23726-4 0  9999,2 51140  53.2175  93.1343 0001803  43.5265 316.5869 15.08817084 41966,6917.95,95.439,541.063,538.568,0.0
51140.0,STARLINK-3175,PAYLOAD,2022-10-19 19:39:52,15.08833863,0.0001933,53.2176,91.6476,49.236,310.88,8.895299999999999e-05,1.128e-05,0.0,0 STARLINK-3175,1 51140U 22005AN  22292.81935363  .00001128  00000-0  88953-4 0  9994,2 51140  53.2176  91.6476 0001933  49.2360 310.8800 15.08833863 43125,6917.899,95.438,541.101,538.427,0.0
51140.0,STARLINK-3175,PAYLOAD,2022-10-19 21:15:15,15.08833391,0.0001996999999999,53.2167,91.3501,48.0374,312.0788,5.8533e-05,6.43e-06,0.0,0 STARLINK-3175,1 51140U 22005AN  22292.88559128  .00000643  00000-0  58533-4 0  9994,2 51140  53.2167  91.3501 0001997  48.0374 312.0788 15.08833391 42026,6917.901,95.438,541.1469999999998,538.384,0.0
51140.0,STARLINK-3175,PAYLOAD,2022-10-19 22:50:38,15.08833261,0.000202,53.2166,91.0526,46.5964,313.5196,5.6748e-05,6.15e-06,0.0,0 STARLINK-3175,1 51140U 22005AN  22292.95183174  .00000615  00000-0  56748-4 0  9991,2 51140  53.2166  91.0526 0002020  46.5964 313.5196 15.08833261 42031,6917.901,95.438,541.163,538.369,0.0
51140.0,STARLINK-3175,PAYLOAD,2022-10-20 19:30:38,15.08841385,0.0002065,53.2166,87.1865,45.1869,314.9291,0.0002359,3.468e-05,0.0,0 STARLINK-3175,1 51140U 22005AN  22293.81295104  .00003468  00000-0  23590-3 0  9991,2 51140  53.2166  87.1865 0002065  45.1869 314.9291 15.08841385 42162,6917.876,95.437,541.17,538.313,0.0
51140.0,STARLINK-3175,PAYLOAD,2022-10-21 03:27:34,15.08848753,0.0002056999999999,53.2166,85.6996,45.334,314.7819,0.00031229,4.687e-05,0.0,0 STARLINK-3175,1 51140U 22005AN  22294.14414755  .00004687  00000-0  31229-3 0  9995,2 51140  53.2166  85.6996 0002057  45.3340 314.7819 15.08848753 43326,6917.854,95.437,541.1419999999998,538.2959999999998,0.0
51140.0,STARLINK-3175,PAYLOAD,2022-10-21 09:49:07,15.08844459,0.0002110999999999,53.2166,84.5102,47.1758,312.9412,0.00040488,6.162e-05,0.0,0 STARLINK-3175,1 51140U 22005AN  22294.40911059  .00006162  00000-0  40488-3 0  9990,2 51140  53.2166  84.5102 0002111  47.1758 312.9412 15.08844459 42256,6917.8669999999975,95.437,541.192,538.271,0.0
51140.0,STARLINK-3175,PAYLOAD,2022-10-21 19:21:25,15.08845358,0.0002121,53.2167,82.7259,45.2265,314.89,0.00014848,2.076e-05,0.0,0 STARLINK-3175,1 51140U 22005AN  22294.80654882  .00002076  00000-0  14848-3 0  9993,2 51140  53.2167  82.7259 0002121  45.2265 314.8900 15.08845358 42312,6917.864000000001,95.437,541.196,538.262,0.0
51140.0,STARLINK-3175,PAYLOAD,2022-10-22 11:15:16,15.0884687,0.0001994,53.2164,79.7524,44.6296,315.4856,-2.143900000000001e-05,-6.29e-06,0.0,0 STARLINK-3175,1 51140U 22005AN  22295.46894532 -.00000629  00000-0 -21439-4 0  9993,2 51140  53.2164  79.7524 0001994  44.6296 315.4856 15.08846870 42412,6917.859,95.437,541.104,538.345,0.0
51140.0,STARLINK-3175,PAYLOAD,2022-10-22 17:36:49,15.088490099999998,0.0001984,53.2179,78.5632,44.3417,315.7734,-7.4295e-07,-3e-06,0.0,0 STARLINK-3175,1 51140U 22005AN  22295.73390547 -.00000300  00000-0 -74295-6 0  9996,2 51140  53.2179  78.5632 0001984  44.3417 315.7734 15.08849010 42457,6917.853,95.437,541.09,538.345,0.0
51140.0,STARLINK-3175,PAYLOAD,2022-10-23 03:09:08,15.08849098,0.0002008999999999,53.218,76.7791,44.7159,315.3995,-8.4285e-07,-3.02e-06,0.0,0 STARLINK-3175,1 51140U 22005AN  22296.13134312 -.00000302  00000-0 -84285-6 0  9999,2 51140  53.2180  76.7791 0002009  44.7159 315.3995 15.08849098 43622,6917.853,95.437,541.107,538.328,0.0
51140.0,STARLINK-3175,PAYLOAD,2022-10-23 11:06:03,15.08849381,0.0002003,53.218,75.2924,44.0742,316.0409,4.8009e-05,4.76e-06,0.0,0 STARLINK-3175,1 51140U 22005AN  22296.46253797  .00000476  00000-0  48009-4 0  9996,2 51140  53.2180  75.2924 0002003  44.0742 316.0409 15.08849381 42564,6917.852,95.437,541.102,538.331,0.0
51140.0,STARLINK-3175,PAYLOAD,2022-10-23 17:27:35,15.08847723,0.0001999,53.2179,74.10300000000002,42.3004,317.8143,4.6622e-05,4.54e-06,0.0,0 STARLINK-3175,1 51140U 22005AN  22296.72749740  .00000454  00000-0  46622-4 0  9998,2 51140  53.2179  74.1030 0001999  42.3004 317.8143 15.08847723 42600,6917.857,95.437,541.105,538.339,0.0
51140.0,STARLINK-3175,PAYLOAD,2022-10-24 09:21:26,15.08847327,0.0002021999999999,53.2179,71.1295,41.7929,318.3218,9.4168e-05,1.211e-05,0.0,0 STARLINK-3175,1 51140U 22005AN  22297.38989240  .00001211  00000-0  94168-4 0  9992,2 51140  53.2179  71.1295 0002022  41.7929 318.3218 15.08847327 43810,6917.858,95.437,541.122,538.3240000000002,0.0
51140.0,STARLINK-3175,PAYLOAD,2022-10-24 18:53:47,15.08826353,0.0001974,53.2183,69.3461,35.3121,324.8001,-6.201399999999999e-05,-1.275e-05,0.0,0 STARLINK-3175,1 51140U 22005AN  22297.78735234 -.00001275  00000-0 -62014-4 0  9995,2 51140  53.2183  69.3461 0001974  35.3121 324.8001 15.08826353 43871,6917.922,95.438,541.153,538.422,0.0
